STARLINK-35681          
1 66395U 25257R   25330.16670139 -.02036169  00000+0 -24748-1 0  9990
2 66395  53.1594 343.2070 0001417  84.3723  95.0529 15.63368874  3674
STARLINK-35669          
1 66396U 25257S   25330.16670139 -.02036677  00000+0 -24754-1 0  9992
2 66396  53.1597 343.2023 0001387  87.8215  93.5197 15.63370009  3831
STARLINK-35510          
1 66397U 25257T   25330.16670139 -.02015751  00000+0 -24476-1 0  9994
2 66397  53.1595 343.1981 0001423  86.9918  96.2668 15.63357318  3834
STARLINK-35642          
1 66398U 25257U   25330.16670139 -.02036423  00000+0 -24750-1 0  9999
2 66398  53.1596 343.1942 0001395  87.1041  98.0686 15.63370907  3830
STARLINK-35657          
1 66399U 25257V   25330.16670139 -.02031184  00000+0 -24681-1 0  9992
2 66399  53.1594 343.1903 0001425  86.9241 100.1675 15.63366620  3839
STARLINK-35667          
1 66400U 25257W   25330.16670139 -.02033859  00000+0 -24715-1 0  9994
2 66400  53.1593 343.1819 0001436  87.9166 103.0051 15.63370103  3837
STARLINK-35668          
1 66401U 25257X   25330.16670139 -.02034420  00000+0 -24721-1 0  9997
2 66401  53.1594 343.1781 0001546  87.3583 105.4809 15.63369905  3831
STARLINK-35644          
1 66402U 25257Y   25330.16670139 -.02032491  00000+0 -24698-1 0  9997
2 66402  53.1595 343.1860 0001411  86.6404 102.3670 15.63367894  3833
STARLINK-35602          
1 66403U 25257Z   25330.16670139 -.02034202  00000+0 -24720-1 0  9996
2 66403  53.1596 343.1743 0001440  88.6775 106.0794 15.63369485  3836
STARLINK-35691          
1 66404U 25257AA  25330.16670139 -.02027580  00000+0 -24632-1 0  9990
2 66404  53.1593 343.1696 0001449  88.2007 108.4731 15.63365527  3834
STARLINK-35683          
1 66405U 25257AB  25330.16670139 -.02030115  00000+0 -24666-1 0  9996
2 66405  53.1595 343.1651 0001387  91.2638 107.3278 15.63366829  3675
STARLINK-34840          
1 66406U 25257AC  25329.33336806 -.01983051  00000+0 -20770-1 0  9991
2 66406  53.1592 347.2344 0001506  80.0226 106.1740 15.66964723  3647
